CCSDS_OEM_VERS = 2.0  
CREATION_DATE  = 2026-05-08T15:36:40
ORIGINATOR     = ESOC/OPS-GFA                            
 
 



META_START
OBJECT_NAME          = LISA                                    
OBJECT_ID            = -1000                                   
CENTER_NAME          = SUN                     
REF_FRAME            = EME2000 
TIME_SYSTEM          = TCB
START_TIME           = 2036-12-23T00:00:30.346418            
STOP_TIME            = 2047-09-07T18:57:02.523144            
INTERPOLATION        = HERMITE                                 
INTERPOLATION_DEGREE = 7                                       
META_STOP

2041-12-24T07:05:23.239659     4.40457410034829527e+07    1.31213950261291116e+08    5.63979972607131600e+07   -2.84584387531557716e+01    8.09308705074325019e+00    3.76165228084402026e+00   -1.75098803066205264e-06   -5.21585437105993105e-06   -2.24186246530164768e-06
2041-12-25T03:25:57.192863     4.19569960605262816e+07    1.31792632244237140e+08    5.66674568415946960e+07   -2.85836198565490776e+01    7.71029908653554852e+00    3.59709336245890876e+00   -1.66761961367628405e-06   -5.23779621111858628e-06   -2.25211742096607971e-06
2041-12-25T23:46:31.146065     3.98593074667928815e+07    1.32343223338574290e+08    5.69248380643038899e+07   -2.87026836101521212e+01    7.32594562671898331e+00    3.43180124169626044e+00   -1.58392787570932783e-06   -5.25860705187898408e-06   -2.26188574519281028e-06
2041-12-26T20:07:05.099269     3.77531240606018156e+07    1.32865611964943990e+08    5.71700885539545193e+07   -2.88156070088415746e+01    6.94010962716610535e+00    3.26581161814314225e+00   -1.49993119965786235e-06   -5.27828341735475796e-06   -2.27116576682799680e-06
2041-12-27T16:27:39.052471     3.56388963286750615e+07    1.33359692564232156e+08    5.74031585266260430e+07   -2.89223683948021808e+01    6.55287429163796808e+00    3.09916031088934174e+00   -1.41564799715409794e-06   -5.29682201899374740e-06   -2.27995589569761250e-06
2041-12-28T12:48:13.005675     3.35170762971728295e+07    1.33825365670832947e+08    5.76240008220659047e+07   -2.90229474595939259e+01    6.16432305699476579e+00    2.93188325213768852e+00   -1.33109670740704599e-06   -5.31421978366564101e-06   -2.28825463470007627e-06
2041-12-29T09:08:46.958877     3.13881174273760095e+07    1.34262537958180964e+08    5.78325709243442416e+07   -2.91173252461110685e+01    5.77453957656732264e+00    2.76401648001973665e+00   -1.24629579545057741e-06   -5.33047387599553162e-06   -2.29606058945615901e-06
2041-12-30T05:29:20.912081     2.92524745149557367e+07    1.34671122262342870e+08    5.80288269729775116e+07   -2.92054841503911611e+01    5.38360770209995021e+00    2.59559613079411866e+00   -1.16126374979801463e-06   -5.34558171504833844e-06   -2.30337247551863069e-06
2041-12-31T01:49:54.865284     2.71106035917885639e+07    1.35051037589451760e+08    5.82127297670344785e+07   -2.92874079232304467e+01    4.99161146467853989e+00    2.42665843060638675e+00   -1.07601907950100815e-06   -5.35954098535476282e-06   -2.31018912313743232e-06
2041-12-31T22:10:28.818487     2.49629618292761110e+07    1.35402209112767577e+08    5.83842427647377700e+07   -2.93630816715622522e+01    4.59863505505781589e+00    2.25723968698914490e+00   -9.90580310617093181e-07   -5.37234964229684405e-06   -2.31650947958827407e-06
2042-01-01T18:31:02.771690     2.28100074421275929e+07    1.35724568165146798e+08    5.85433320810743719e+07   -2.94324918595547516e+01    4.20476280380169776e+00    2.08737628028129452e+00   -9.04965982078158238e-07   -5.38400591182205097e-06   -2.32233260905115804e-06
2042-01-02T14:51:36.724893     2.06521995915642940e+07    1.36018052232705086e+08    5.86899664859282449e+07   -2.94956263093846403e+01    3.81007916165064042e+00    1.91710465514518091e+00   -8.19194640970594053e-07   -5.39450828453104366e-06   -2.32765769005835698e-06
2042-01-03T11:12:10.678096     1.84899982869042233e+07    1.36282604955455810e+08    5.88241174052484408e+07   -2.95524742016431823e+01    3.41466868052991224e+00    1.74646131236047442e+00   -7.33284837218493508e-07   -5.40385550409555844e-06   -2.33248401049310057e-06
2042-01-04T07:32:44.631299     1.63238642844860181e+07    1.36518176140708208e+08    5.89457589277659953e+07   -2.96030260753311616e+01    3.01861599561269767e+00    1.57548280107357419e+00   -6.47255117671553299e-07   -5.41204655002524127e-06   -2.33681096014690957e-06
2042-01-05T03:53:18.584502     1.41542589828906544e+07    1.36724721795008063e+08    5.90548678197728768e+07   -2.96472738273991325e+01    2.62200580885195933e+00    1.40420571168136421e+00   -5.61124019596924240e-07   -5.41908061478334677e-06   -2.34063802083599478e-06
2042-01-06T00:13:52.537705     1.19816443134193942e+07    1.36902204180404782e+08    5.91514235504762754e+07   -2.96852107117895549e+01    2.22492287439500647e+00    1.23266666952813519e+00   -4.74910063590927161e-07   -5.42495707528123863e-06   -2.34396475408880057e-06
2042-01-06T20:34:26.490908     9.80648262478712946e+06    1.37050591900827676e+08    5.92354083304415420e+07   -2.97168313379372329e+01    1.82745198629457395e+00    1.06090232959441577e+00   -3.88631745860133672e-07   -5.42967545861530378e-06   -2.34679078634699970e-06
2042-01-07T16:46:48.506565     7.64386787187947519e+06    1.37169155741293162e+08    5.93063694374481514e+07   -2.97419828127267643e+01    1.43235075156510505e+00    8.90104976430453831e-01   -3.02887619093536075e-07   -5.43321613730530997e-06   -2.34910218376915596e-06
2042-01-08T12:59:10.522221     5.47965042905860953e+06    1.37258970776828408e+08    5.93649007279748619e+07   -2.97608959926669137e+01    1.03703350885844170e+00    7.19157462257903335e-01   -2.17116419126432645e-07   -5.43561455274185470e-06   -2.35091938359643859e-06
2042-01-09T09:11:32.537878     3.31428412172890548e+06    1.37320024343377292e+08    5.94109925983856916e+07   -2.97735695662182458e+01    6.41583329666797209e-01    5.48095733801138629e-01   -1.31336230548295643e-07   -5.43687125551744735e-06   -2.35224245813533614e-06
2042-01-10T05:23:54.553535     1.14822284940760583e+06    1.37352309762306213e+08    5.94446380352124721e+07   -2.97800035368530445e+01    2.46083239123183528e-01    3.76955729802311512e-01   -4.55651227796435789e-08   -5.43698697457808068e-06   -2.35307155672146086e-06
2042-01-11T01:36:16.569191    -1.01807953199246153e+06    1.37355826385140479e+08    5.94658326356309950e+07   -2.97801992216346854e+01   -1.49383797961475828e-01    2.05773374980229518e-01    4.01788585320568634e-08   -5.43596264341271367e-06   -2.35340691731794206e-06
2042-01-11T21:48:38.584848    -3.18416931727054901e+06    1.37330579613983005e+08    5.94745746172998846e+07   -2.97741592492000642e+01   -5.44734892765567746e-01    3.45845732336744760e-02    1.25877699302831144e-07   -5.43379942082587955e-06   -2.35324887573473006e-06
2042-01-12T18:01:00.600505    -5.34959305073068105e+06    1.37276580902673453e+08    5.94708648197753206e+07   -2.97618875572048580e+01   -9.39887249438237316e-01   -1.36574799739467956e-01    2.11513423990469502e-07   -5.43049870630043930e-06   -2.35259787247194944e-06
2042-01-13T14:13:22.616161    -7.51389761893400550e+06    1.37193847743743092e+08    5.94547066997134835e+07   -2.97433893892907548e+01   -1.33475818300124249e+00   -3.07668904234313256e-01    2.97068101760694183e-07   -5.42606214993857968e-06   -2.35145445718209443e-06
2042-01-14T10:25:44.631817    -9.67663033968515322e+06    1.37082403646220118e+08    5.94261063220723197e+07   -2.97186712916336369e+01   -1.72926513777739377e+00   -4.78661944569342523e-01    3.82523851841072171e-07   -5.42049165700203006e-06   -2.34981929076017377e-06
2042-01-15T06:38:06.647474    -1.18373390495272577e+07    1.36942278109340757e+08    5.93850723495243415e+07   -2.96877411091318670e+01   -2.12332570595175962e+00   -6.49518177182079048e-01    4.67862848062827997e-07   -5.41378938701737634e-06   -2.34769314504698788e-06
2042-01-16T02:50:28.663131    -1.39955721920201182e+07    1.36773506597220778e+08    5.93316160322922617e+07   -2.96506079812937351e+01   -2.51685764587182081e+00   -8.20201918617103010e-01    5.53067322591187164e-07   -5.40595774749412232e-06   -2.34507690016623769e-06
2042-01-16T23:02:50.678787    -1.61508789090758078e+07    1.36576130519542694e+08    5.92657512006189823e+07   -2.96072823378831096e+01   -2.90977889969274095e+00   -9.90677553233443753e-01    6.38119568841328942e-07   -5.39699938221604998e-06   -2.34197153947830550e-06
2042-01-17T19:15:12.694444    -1.83028091376265213e+07    1.36350197223313779e+08    5.91874942620838210e+07   -2.95577758943824342e+01   -3.30200760997395992e+00   -1.16090954045838846e+00    7.23001943586220554e-07   -5.38691715408708199e-06   -2.33837814214270985e-06
2042-01-18T15:27:34.710101    -2.04509137138990350e+07    1.36095760000749439e+08    5.90968642059765980e+07   -2.95021016473320721e+01   -3.69346213483321151e+00   -1.33086242141474598e+00    8.07696868247583158e-07   -5.37571412264426028e-06   -2.33429787333776037e-06
2042-01-19T11:39:56.725757    -2.25947444875700250e+07    1.35812878118337512e+08    5.89938826169412360e+07   -2.94402738696051394e+01   -4.08406106126435020e+00   -1.50050082474859936e+00    8.92186829377794041e-07   -5.36339351608228582e-06   -2.32973197207023412e-06
2042-01-20T07:52:18.741414    -2.47338544480773807e+07    1.35501616872138172e+08    5.88785737001006752e+07   -2.93723081056768685e+01   -4.47372321622478530e+00   -1.66978947148457157e+00    9.76454378331794649e-07   -5.34995869783456972e-06   -2.32468173659461690e-06
2042-01-21T03:57:37.100415    -2.68553852427147850e+07    1.35164106900022238e+08    5.87517429680528194e+07   -2.92986703410392622e+01   -4.86010729604610514e+00   -1.83771065884054918e+00    1.05999355011302947e-06   -5.33550177436431466e-06   -2.31918244316977644e-06
